PROBA-1                 
1 26958U 01049B   24357.56230281  .00004625  00000+0  33047-3 0  9998
2 26958  97.9360 338.2218 0059967 149.1629 211.3141 15.03555978262114
CUTE-1 (CO-55)          
1 27844U 03031E   24357.53826465  .00000774  00000+0  35785-3 0  9990
2 27844  98.6778   2.0103 0009041 323.6385  36.4179 14.23713898114587
CUBESAT XI-IV (CO-57)   
1 27848U 03031J   24357.55042424  .00000650  00000+0  30757-3 0  9998
2 27848  98.6808   2.1507 0009206 341.3188  18.7651 14.23090083114329
GENESIS 1               
1 29252U 06029A   24357.07839954  .00052753  00000+0  75384-3 0  9994
2 29252  64.5077 245.0535 0033161 300.7753  59.0124 15.55278238 19630
GENESIS 2               
1 31789U 07028A   24357.59644512  .00049613  00000+0  82315-3 0  9996
2 31789  64.4844 290.6090 0009646 295.6058  64.4084 15.51782626966499
APRIZESAT 4             
1 35684U 09041D   24357.14235081  .00001897  00000+0  24051-3 0  9994
2 35684  98.2119  49.0734 0043243 276.9470  82.6824 14.82379552831015
APRIZESAT 3             
1 35686U 09041F   24357.33158912  .00003266  00000+0  30584-3 0  9994
2 35686  98.1332 117.3007 0066282  55.0292 305.7126 14.93160287835429
PROBA-2                 
1 36037U 09059B   24357.54610482  .00000758  00000+0  18901-3 0  9994
2 36037  98.2302 177.8955 0013795 149.2964 210.9042 14.54313873802789
APRIZESAT 5             
1 37792U 11044E   24357.55022090  .00002691  00000+0  36255-3 0  9993
2 37792  98.2346 265.7175 0053152 306.3768  53.2545 14.79110107718667
APRIZESAT 6             
1 37793U 11044F   24357.26927708  .00001899  00000+0  28329-3 0  9994
2 37793  98.2784 245.1015 0044961  19.2244  94.6940 14.75416928717197
PROBA-V                 
1 39159U 13021A   24357.54366935  .00000203  00000+0  10735-3 0  9999
2 39159  98.3123 353.6195 0003019 283.9420  76.1423 14.23401236604052
APRIZESAT 7             
1 39416U 13066A   24357.45058557  .00002713  00000+0  29056-3 0  9996
2 39416  97.6985 310.8844 0036700 203.8830 156.0686 14.89017815600537
APRIZESAT 8             
1 39425U 13066K   24357.42813998  .00002737  00000+0  31708-3 0  9994
2 39425  97.7553 304.5318 0046197 267.9535  91.6390 14.85539571599176
BUGSAT-1 (TITA)         
1 40014U 14033E   24357.58029479  .00008012  00000+0  51876-3 0  9995
2 40014  98.1002  48.9920 0032193 218.8276 141.0638 15.08019800573993
SAUDISAT 4              
1 40016U 14033G   24357.45261469  .00001562  00000+0  21899-3 0  9995
2 40016  97.6830 154.3024 0046870  37.9024 322.5472 14.78103295566007
APRIZESAT 9             
1 40018U 14033J   24357.36755125  .00002023  00000+0  31199-3 0  9991
2 40018  97.8275 135.8293 0068626 141.5881 219.0242 14.72864765563767
APRIZESAT 10            
1 40019U 14033K   24357.37797392  .00001886  00000+0  31000-3 0  9992
2 40019  97.8927 128.2041 0079979 203.2963 156.4611 14.69674149562639
TECHDEMOSAT-1 (TDS-1)   
1 40076U 14037H   24357.40193868  .00013507  00000+0  10713-2 0  9991
2 40076  98.3310 292.1232 0004177 285.1312  74.9448 15.00659554566604
TIANTUO 2               
1 40144U 14053B   24357.56029196  .00212855  19473-4  54694-3 0  9997
2 40144  97.1007  82.7799 0001632  38.1192 322.0200 15.95252810577621
TECHNOSAT               
1 42829U 17042E   24357.55733714  .00006909  00000+0  56557-3 0  9999
2 42829  97.3857 168.5315 0013469 151.2652 208.9317 14.99539467405376
FLYING LAPTOP           
1 42831U 17042G   24357.59612841  .00004449  00000+0  38897-3 0  9997
2 42831  97.3892 167.9699 0012455 157.8442 202.3321 14.97170366405302
HAWK-A                  
1 43765U 18099H   24357.23298669  .00008518  00000+0  57710-3 0  9992
2 43765  97.4727  48.7719 0009129   7.5348 352.6015 15.06680161330920
HAWK-B                  
1 43794U 18099AN  24357.56622278  .00008648  00000+0  58625-3 0  9997
2 43794  97.4730  49.0929 0009097   8.6548 351.4834 15.06650400330964
HAWK-C                  
1 43799U 18099AT  24357.36692341  .00008532  00000+0  57851-3 0  9990
2 43799  97.4733  48.7964 0009088   8.2793 351.8583 15.06647714331684
SALSAT                  
1 46495U 20068K   24357.57945078  .00012813  00000+0  62490-3 0  9998
2 46495  97.8422 322.5560 0014015  34.3119 325.9017 15.18369707232840
HAWK-2C                 
1 47502U 21006CT  24357.54915048  .00011021  00000+0  43569-3 0  9998
2 47502  97.3073  42.5485 0008212 346.1586  13.9426 15.25620613216671
HAWK-2A                 
1 47505U 21006CW  24357.54930685  .00008858  00000+0  35083-3 0  9991
2 47505  97.3120  42.9082 0007860 348.6025  11.5034 15.25621892216676
HAWK-2B                 
1 47508U 21006CZ  24357.09036793  .00008427  00000+0  33403-3 0  9997
2 47508  97.2988  41.7151 0008669 350.4003   9.7069 15.25604610216608
HAWK-3B                 
1 48931U 21059BE  24357.42541633  .00021429  00000+0  59007-3 0  9992
2 48931  97.6469 147.7403 0010657 133.7299 226.4829 15.37122172193868
HAWK-3C                 
1 48948U 21059BX  24356.96956559  .00021873  00000+0  60234-3 0  9992
2 48948  97.6719 151.4885 0011347 138.2558 221.9553 15.37108461193796
HAWK-3A                 
1 48957U 21059CG  24356.96942995  .00022750  00000+0  62629-3 0  9996
2 48957  97.6599 149.3868 0011365 132.5949 227.6255 15.37109607193795
HAWK-4B                 
1 52165U 22033J   24357.22289074  .00046837  00000+0  71966-3 0  9993
2 52165  97.3101  81.6224 0004410 344.2665  15.8451 15.54114546152350
HAWK-4A                 
1 52167U 22033L   24357.22272768  .00047497  00000+0  72983-3 0  9990
2 52167  97.3042  80.9594 0003884 343.9693  16.1437 15.54112846152358
HAWK-4C                 
1 52170U 22033P   24357.22255036  .00045766  00000+0  70336-3 0  9990
2 52170  97.3099  81.5940 0005246 328.0154  32.0780 15.54109335152353
HAWK-5C                 
1 52754U 22057Y   24357.36594804  .00017642  00000+0  59898-3 0  9990
2 52754  97.5962 122.6222 0006916 204.0701 156.0217 15.30541887142928
HAWK-5B                 
1 52756U 22057AA  24357.30040576  .00017806  00000+0  60439-3 0  9993
2 52756  97.5951 120.9880 0007424 199.7993 160.2960 15.30544971142915
HAWK-5A                 
1 52757U 22057AB  24357.30017773  .00017981  00000+0  61031-3 0  9990
2 52757  97.5957 121.7664 0007731 202.0171 158.0738 15.30540929142915
HAWK-6B                 
1 55324U 23011A   24357.04813597  .00008621  00000+0  45946-3 0  9991
2 55324  40.5151 256.4475 0002250 307.6208  52.4395 15.15179111105360
HAWK-6C                 
1 55326U 23011C   24357.17949250  .00008378  00000+0  44675-3 0  9990
2 55326  40.4840 253.7530 0002463 331.0862  28.9807 15.15179362105398
HAWK-6A                 
1 55327U 23011D   24357.17946004  .00008578  00000+0  45713-3 0  9991
2 55327  40.4998 254.7526 0003167 322.4839  37.5746 15.15182199105399
HAWK-7A                 
1 56191U 23054P   24357.23211990  .00011162  00000+0  46884-3 0  9997
2 56191  97.3476 244.5916 0006921 185.0065 175.1104 15.23588109 94301
HAWK-7B                 
1 56193U 23054R   24357.62610408  .00011152  00000+0  46818-3 0  9995
2 56193  97.3375 243.4601 0007475 197.3449 162.7534 15.23599802 94364
HAWK-7C                 
1 56200U 23054Y   24357.62598854  .00011020  00000+0  46277-3 0  9997
2 56200  97.3383 244.2606 0006553 194.3615 165.7437 15.23600693 94360
